[{"OBJECT_NAME":"STARLINK-5313","OBJECT_ID":"2023-010AW","EPOCH":"2026-03-09T23:18:47.650176","MEAN_MOTION":14.98330211,"ECCENTRICITY":0.00027416,"INCLINATION":70.0013,"RA_OF_ASC_NODE":3.7787,"ARG_OF_PERICENTER":268.6791,"MEAN_ANOMALY":91.4054,"EPHEMERIS_TYPE":0,"CLASSIFICATION_TYPE":"U","NORAD_CAT_ID":55313,"ELEMENT_SET_NO":999,"REV_AT_EPOCH":17468,"BSTAR":-1.3585395e-5,"MEAN_MOTION_DOT":-2.55e-6,"MEAN_MOTION_DDOT":0},{"OBJECT_NAME":"ICEYE-X39","OBJECT_ID":"2024-149CG","EPOCH":"2026-03-09T17:17:30.183072","MEAN_MOTION":14.99225125,"ECCENTRICITY":0.0005274,"INCLINATION":97.6853,"RA_OF_ASC_NODE":147.0953,"ARG_OF_PERICENTER":52.5538,"MEAN_ANOMALY":307.6164,"EPHEMERIS_TYPE":0,"CLASSIFICATION_TYPE":"U","NORAD_CAT_ID":60546,"ELEMENT_SET_NO":999,"REV_AT_EPOCH":8521,"BSTAR":0.00029320082,"MEAN_MOTION_DOT":3.515e-5,"MEAN_MOTION_DDOT":0}]
